IRIDIUM 63              
1 25286U 98021B   25125.68918141  .00000657  00000+0  21737-3 0  9996
2 25286  86.3943  99.9622 0002457  86.0334 274.1144 14.36511217417744
IRIDIUM 69              
1 25319U 98026A   25125.69312483  .00000744  00000+0  22566-3 0  9994
2 25319  86.3936 113.3823 0003687 126.6009 233.5530 14.40926637416943
IRIDIUM 71              
1 25320U 98026B   25125.70564039  .00000717  00000+0  21644-3 0  9990
2 25320  86.3934 108.0738 0001608 151.6412 208.4875 14.41121301417474
IRIDIUM 73              
1 25344U 98032C   25125.87708045  .00000986  00000+0  24080-3 0  9993
2 25344  86.4414  64.7818 0002837  96.7441 263.4088 14.51665007424424
IRIDIUM 82              
1 25467U 98051A   25125.87612015  .00032440  00000+0  97395-3 0  9990
2 25467  86.3657 130.5100 0092546  97.2635 263.9145 15.30064065417483
